{
  "type": "FeatureCollection",
  "features": [
    {
      "type": "Feature",
      "properties": {
        "norad_id": 66632,
        "name": "STARLINK-35973",
        "group": "last-30-days",
        "lat": -51.05044448925457,
        "lon": 74.55047245810685,
        "alt_km": 452.34797807353425,
        "timestamp": "2025-12-22T04:03:37.885938+00:00",
        "meta_object_name": "STARLINK-35973",
        "meta_object_id": "2025-271R",
        "meta_epoch": "2025-12-21T17:29:10.754880",
        "meta_mean_motion": 15.39658441,
        "meta_eccentricity": 8.51e-05,
        "meta_inclination": 53.1601,
        "meta_ra_of_asc_node": 144.6738,
        "meta_arg_of_pericenter": 98.3607,
        "meta_mean_anomaly": 261.7494,
        "meta_ephemeris_type": 0,
        "meta_classification_type": "U",
        "meta_norad_cat_id": 66632,
        "meta_element_set_no": 999,
        "meta_rev_at_epoch": 555,
        "meta_bstar": 0.0011465,
        "meta_mean_motion_dot": 0.00045794,
        "meta_mean_motion_ddot": 0,
        "tle_line1": "1 66632U 25271R   25355.72859670  .00045794  00000+0  11465-2 0  9991",
        "tle_line2": "2 66632  53.1601 144.6738 0000851  98.3607 261.7494 15.39658441  5555"
      },
      "geometry": {
        "type": "Point",
        "coordinates": [
          74.55047245810685,
          -51.05044448925457
        ]
      }
    },
    {
      "type": "Feature",
      "properties": {
        "norad_id": 66633,
        "name": "STARLINK-35948",
        "group": "last-30-days",
        "lat": -50.48484701006517,
        "lon": 77.23169205262029,
        "alt_km": 452.4156712524964,
        "timestamp": "2025-12-22T04:03:37.885948+00:00",
        "meta_object_name": "STARLINK-35948",
        "meta_object_id": "2025-271S",
        "meta_epoch": "2025-12-21T17:28:42.065760",
        "meta_mean_motion": 15.39633829,
        "meta_eccentricity": 8.14e-05,
        "meta_inclination": 53.1611,
        "meta_ra_of_asc_node": 144.6709,
        "meta_arg_of_pericenter": 103.4907,
        "meta_mean_anomaly": 256.6189,
        "meta_ephemeris_type": 0,
        "meta_classification_type": "U",
        "meta_norad_cat_id": 66633,
        "meta_element_set_no": 999,
        "meta_rev_at_epoch": 559,
        "meta_bstar": 0.00082683,
        "meta_mean_motion_dot": 0.0003283,
        "meta_mean_motion_ddot": 0,
        "tle_line1": "1 66633U 25271S   25355.72826465  .00032830  00000+0  82683-3 0  9996",
        "tle_line2": "2 66633  53.1611 144.6709 0000814 103.4907 256.6189 15.39633829  5596"
      },
      "geometry": {
        "type": "Point",
        "coordinates": [
          77.23169205262029,
          -50.48484701006517
        ]
      }
    },
    {
      "type": "Feature",
      "properties": {
        "norad_id": 66634,
        "name": "STARLINK-35967",
        "group": "last-30-days",
        "lat": -37.08298462595029,
        "lon": 108.02577885346986,
        "alt_km": 451.59789856759926,
        "timestamp": "2025-12-22T04:03:37.885958+00:00",
        "meta_object_name": "STARLINK-35967",
        "meta_object_id": "2025-271T",
        "meta_epoch": "2025-12-21T18:55:29.400672",
        "meta_mean_motion": 15.39646521,
        "meta_eccentricity": 7.94e-05,
        "meta_inclination": 53.1625,
        "meta_ra_of_asc_node": 144.3337,
        "meta_arg_of_pericenter": 70.5371,
        "meta_mean_anomaly": 289.572,
        "meta_ephemeris_type": 0,
        "meta_classification_type": "U",
        "meta_norad_cat_id": 66634,
        "meta_element_set_no": 999,
        "meta_rev_at_epoch": 556,
        "meta_bstar": 0.00082178,
        "meta_mean_motion_dot": 0.0003264,
        "meta_mean_motion_ddot": 0,
        "tle_line1": "1 66634U 25271T   25355.78853473  .00032640  00000+0  82178-3 0  9990",
        "tle_line2": "2 66634  53.1625 144.3337 0000794  70.5371 289.5720 15.39646521  5568"
      },
      "geometry": {
        "type": "Point",
        "coordinates": [
          108.02577885346986,
          -37.08298462595029
        ]
      }
    },
    {
      "type": "Feature",
      "properties": {
        "norad_id": 66635,
        "name": "STARLINK-35955",
        "group": "last-30-days",
        "lat": 2.056877200962092,
        "lon": 143.98174550435397,
        "alt_km": 447.7458774605311,
        "timestamp": "2025-12-22T04:03:37.885968+00:00",
        "meta_object_name": "STARLINK-35955",
        "meta_object_id": "2025-271U",
        "meta_epoch": "2025-12-21T17:08:38.433408",
        "meta_mean_motion": 15.3964466,
        "meta_eccentricity": 0.0001,
        "meta_inclination": 53.1607,
        "meta_ra_of_asc_node": 144.5828,
        "meta_arg_of_pericenter": 92.221,
        "meta_mean_anomaly": 267.891,
        "meta_ephemeris_type": 0,
        "meta_classification_type": "U",
        "meta_norad_cat_id": 66635,
        "meta_element_set_no": 999,
        "meta_rev_at_epoch": 559,
        "meta_bstar": 0.00051713,
        "meta_mean_motion_dot": 0.00020357,
        "meta_mean_motion_ddot": 0,
        "tle_line1": "1 66635U 25271U   25355.71433372  .00020357  00000+0  51713-3 0  9999",
        "tle_line2": "2 66635  53.1607 144.5828 0001000  92.2210 267.8910 15.39644660  5595"
      },
      "geometry": {
        "type": "Point",
        "coordinates": [
          143.98174550435397,
          2.056877200962092
        ]
      }
    },
    {
      "type": "Feature",
      "properties": {
        "norad_id": 66636,
        "name": "STARLINK-35968",
        "group": "last-30-days",
        "lat": -18.330762705137985,
        "lon": 128.1064772510875,
        "alt_km": 450.08458560954114,
        "timestamp": "2025-12-22T04:03:37.885978+00:00",
        "meta_object_name": "STARLINK-35968",
        "meta_object_id": "2025-271V",
        "meta_epoch": "2025-12-21T17:15:19.641312",
        "meta_mean_motion": 15.39654163,
        "meta_eccentricity": 8.32e-05,
        "meta_inclination": 53.1622,
        "meta_ra_of_asc_node": 144.6097,
        "meta_arg_of_pericenter": 79.1661,
        "meta_mean_anomaly": 280.9438,
        "meta_ephemeris_type": 0,
        "meta_classification_type": "U",
        "meta_norad_cat_id": 66636,
        "meta_element_set_no": 999,
        "meta_rev_at_epoch": 559,
        "meta_bstar": 0.0011002,
        "meta_mean_motion_dot": 0.00043911,
        "meta_mean_motion_ddot": 0,
        "tle_line1": "1 66636U 25271V   25355.71897733  .00043911  00000+0  11002-2 0  9992",
        "tle_line2": "2 66636  53.1622 144.6097 0000832  79.1661 280.9438 15.39654163  5598"
      },
      "geometry": {
        "type": "Point",
        "coordinates": [
          128.1064772510875,
          -18.330762705137985
        ]
      }
    },
    {
      "type": "Feature",
      "properties": {
        "norad_id": 66637,
        "name": "STARLINK-35953",
        "group": "last-30-days",
        "lat": 22.26086852950646,
        "lon": 160.26011067166934,
        "alt_km": 444.3793316317051,
        "timestamp": "2025-12-22T04:03:37.885990+00:00",
        "meta_object_name": "STARLINK-35953",
        "meta_object_id": "2025-271W",
        "meta_epoch": "2025-12-21T20:00:01.999008",
        "meta_mean_motion": 15.39580246,
        "meta_eccentricity": 0.0001083,
        "meta_inclination": 53.1596,
        "meta_ra_of_asc_node": 143.9712,
        "meta_arg_of_pericenter": 80.0609,
        "meta_mean_anomaly": 245.8708,
        "meta_ephemeris_type": 0,
        "meta_classification_type": "U",
        "meta_norad_cat_id": 66637,
        "meta_element_set_no": 999,
        "meta_rev_at_epoch": 570,
        "meta_bstar": 0.0016928,
        "meta_mean_motion_dot": 0.00067827,
        "meta_mean_motion_ddot": 0,
        "tle_line1": "1 66637U 25271W   25355.83335647  .00067827  00000+0  16928-2 0  9991",
        "tle_line2": "2 66637  53.1596 143.9712 0001083  80.0609 245.8708 15.39580246  5700"
      },
      "geometry": {
        "type": "Point",
        "coordinates": [
          160.26011067166934,
          22.26086852950646
        ]
      }
    },
    {
      "type": "Feature",
      "properties": {
        "norad_id": 66638,
        "name": "STARLINK-35972",
        "group": "last-30-days",
        "lat": 51.94476951694935,
        "lon": -144.44194268933913,
        "alt_km": 439.3390600371067,
        "timestamp": "2025-12-22T04:03:37.886000+00:00",
        "meta_object_name": "STARLINK-35972",
        "meta_object_id": "2025-271X",
        "meta_epoch": "2025-12-21T20:00:01.999008",
        "meta_mean_motion": 15.39614083,
        "meta_eccentricity": 0.0001187,
        "meta_inclination": 53.1602,
        "meta_ra_of_asc_node": 143.869,
        "meta_arg_of_pericenter": 98.9498,
        "meta_mean_anomaly": 278.3799,
        "meta_ephemeris_type": 0,
        "meta_classification_type": "U",
        "meta_norad_cat_id": 66638,
        "meta_element_set_no": 999,
        "meta_rev_at_epoch": 570,
        "meta_bstar": 0.0021818,
        "meta_mean_motion_dot": 0.00087867,
        "meta_mean_motion_ddot": 0,
        "tle_line1": "1 66638U 25271X   25355.83335647  .00087867  00000+0  21818-2 0  9992",
        "tle_line2": "2 66638  53.1602 143.8690 0001187  98.9498 278.3799 15.39614083  5700"
      },
      "geometry": {
        "type": "Point",
        "coordinates": [
          -144.44194268933913,
          51.94476951694935
        ]
      }
    }
  ]
}